ONEWEB-0410             
1 51622U 22012A   26166.54668394  .00000070  00000+0  14758-3 0  9993
2 51622  87.9145   6.1832 0003063  75.1950 284.9521 13.17648787213482
ONEWEB-0411             
1 51623U 22012B   26166.56220966  .00000455  00000+0  12678-2 0  9990
2 51623  87.8838  36.5903 0001672 101.0547 259.0768 13.10370187209077
ONEWEB-0415             
1 51624U 22012C   26166.55889588  .00000588  00000+0  16492-2 0  9996
2 51624  87.8835  36.5900 0001817  90.9237 269.2098 13.10370880209074
ONEWEB-0416             
1 51625U 22012D   26166.57051088  .00000041  00000+0  81256-4 0  9991
2 51625  87.8829  36.6057 0002066  94.1249 266.0114 13.10369877209111
ONEWEB-0422             
1 51626U 22012E   26166.55681245  .00000103  00000+0  23225-3 0  9994
2 51626  87.9142   6.1825 0001215  84.9443 275.1828 13.17649993213591
ONEWEB-0423             
1 51627U 22012F   26166.55006398  .00000044  00000+0  79101-4 0  9994
2 51627  87.9136   6.1894 0001894  84.5569 275.5779 13.17650367213483
ONEWEB-0425             
1 51628U 22012G   26166.58046259 -.00000421  00000+0 -12412-2 0  9999
2 51628  87.8831  36.5870 0002071  77.7228 282.4132 13.10371515209113
ONEWEB-0428             
1 51629U 22012H   26166.56055118  .00000531  00000+0  14854-2 0  9994
2 51629  87.8832  36.5983 0001749  81.8035 278.3291 13.10370808209072
ONEWEB-0431             
1 51630U 22012J   26166.60687983 -.00000042  00000+0 -15696-3 0  9997
2 51630  87.8838  36.5817 0001529 101.6222 258.5077 13.10377008209139
ONEWEB-0434             
1 51631U 22012K   26166.58391580 -.00000532  00000+0 -15612-2 0  9991
2 51631  87.8836  36.6109 0002294  71.9970 288.1407 13.10370795209112
ONEWEB-0435             
1 51632U 22012L   26166.59206167 -.00000536  00000+0 -15730-2 0  9994
2 51632  87.8833  36.5963 0001424  84.1148 276.0141 13.10372606209107
ONEWEB-0436             
1 51633U 22012M   26166.54161841  .00000060  00000+0  12108-3 0  9996
2 51633  87.9141   6.1728 0001634  89.5488 270.5831 13.17649031213467
ONEWEB-0438             
1 51634U 22012N   26166.57548301 -.00000189  00000+0 -57751-3 0  9997
2 51634  87.8831  36.6020 0001964  80.6411 279.4938 13.10369893209133
ONEWEB-0439             
1 51635U 22012P   26166.57881170 -.00000383  00000+0 -11330-2 0  9990
2 51635  87.8828  36.5889 0001779  79.5828 280.5500 13.10371831209116
ONEWEB-0442             
1 51636U 22012Q   26166.60996713  .00000064  00000+0  13125-3 0  9994
2 51636  87.9135   6.1923 0002386  82.6420 277.4982 13.17648844213469
ONEWEB-0443             
1 51637U 22012R   26166.55342876  .00000050  00000+0  94885-4 0  9992
2 51637  87.9133   6.2043 0001780  76.4463 283.6866 13.17649611213505
ONEWEB-0444             
1 51638U 22012S   26166.56884612  .00000138  00000+0  36014-3 0  9999
2 51638  87.8827  36.5894 0001792  77.5661 282.5667 13.10370364209129
ONEWEB-0445             
1 51639U 22012T   26166.59041253 -.00000136  00000+0 -42484-3 0  9997
2 51639  87.8842  36.5733 0001821  89.6613 270.4723 13.10376666209134
ONEWEB-0446             
1 51640U 22012U   26166.56718709  .00000190  00000+0  50666-3 0  9992
2 51640  87.8832  36.6068 0001862  86.9433 273.1908 13.10369016209116
ONEWEB-0448             
1 51641U 22012V   26166.57216719 -.00000031  00000+0 -12381-3 0  9996
2 51641  87.8828  36.6024 0001754  80.3739 279.7586 13.10370176209080
ONEWEB-0449             
1 51642U 22012W   26166.57714216 -.00000328  00000+0 -97506-3 0  9993
2 51642  87.8833  36.5867 0002162  75.2828 284.8539 13.10370277209095
ONEWEB-0451             
1 51643U 22012X   26166.53825553  .00000061  00000+0  12361-3 0  9995
2 51643  87.9143   6.1710 0002004  83.1510 276.9850 13.17649244213444
ONEWEB-0452             
1 51644U 22012Y   26166.61249260  .00000038  00000+0  65392-4 0  9997
2 51644  87.9134   6.1932 0001888  78.2922 281.8421 13.17648646213468
ONEWEB-0456             
1 51646U 22012AA  26166.58707568  .00000104  00000+0  26116-3 0  9999
2 51646  87.8841  36.5713 0001564  81.4408 278.6896 13.10375949209139
ONEWEB-0457             
1 51647U 22012AB  26166.56373012  .00000410  00000+0  11391-2 0  9999
2 51647  87.8830  36.5950 0002165  88.7348 271.4027 13.10369792209138
ONEWEB-0458             
1 51648U 22012AC  26166.58543707 -.00000559  00000+0 -16389-2 0  9990
2 51648  87.8840  36.5782 0001846  76.0302 284.1030 13.10371492209098
ONEWEB-0461             
1 51649U 22012AD  26166.55849365  .00000055  00000+0  10843-3 0  9996
2 51649  87.9142   6.1810 0001931  90.0424 270.0929 13.17648361213675
ONEWEB-0463             
1 51650U 22012AE  26166.53994052  .00000068  00000+0  14188-3 0  9990
2 51650  87.9132   6.2074 0001964  91.3505 268.7852 13.17648871213450
ONEWEB-0464             
1 51651U 22012AF  26166.58211757 -.00000469  00000+0 -13808-2 0  9994
2 51651  87.8830  36.6005 0001573  75.8141 284.3161 13.10370300209112
ONEWEB-0468             
1 51652U 22012AG  26166.58875130 -.00000137  00000+0 -42916-3 0  9991
2 51652  87.8830  36.5931 0001492  75.6569 284.4724 13.10375767209097
