OBJECT_NAME,OBJECT_ID,EPOCH,MEAN_MOTION,ECCENTRICITY,INCLINATION,RA_OF_ASC_NODE,ARG_OF_PERICENTER,MEAN_ANOMALY,EPHEMERIS_TYPE,CLASSIFICATION_TYPE,NORAD_CAT_ID,ELEMENT_SET_NO,REV_AT_EPOCH,BSTAR,MEAN_MOTION_DOT,MEAN_MOTION_DDOT
ONEWEB-0410,2022-012A,2026-06-15T13:07:13.492416,13.17648787,.00030639,87.9145,6.1832,75.1950,284.9521,0,U,51622,999,21348,.14758016E-3,.7E-6,0
ONEWEB-0411,2022-012B,2026-06-15T13:29:34.914624,13.10370187,.00016728,87.8838,36.5903,101.0547,259.0768,0,U,51623,999,20907,.12678028E-2,.455E-5,0
ONEWEB-0415,2022-012C,2026-06-15T13:24:48.604032,13.10370880,.00018177,87.8835,36.5900,90.9237,269.2098,0,U,51624,999,20907,.1649201E-2,.588E-5,0
ONEWEB-0416,2022-012D,2026-06-15T13:41:32.140032,13.10369877,.00020661,87.8829,36.6057,94.1249,266.0114,0,U,51625,999,20911,.81256395E-4,.41E-6,0
ONEWEB-0422,2022-012E,2026-06-15T13:21:48.595680,13.17649993,.00012158,87.9142,6.1825,84.9443,275.1828,0,U,51626,999,21359,.2322465E-3,.103E-5,0
ONEWEB-0423,2022-012F,2026-06-15T13:12:05.527872,13.17650367,.00018948,87.9136,6.1894,84.5569,275.5779,0,U,51627,999,21348,.79101242E-4,.44E-6,0
ONEWEB-0425,2022-012G,2026-06-15T13:55:51.967776,13.10371515,.00020718,87.8831,36.5870,77.7228,282.4132,0,U,51628,999,20911,-.12412008E-2,-.421E-5,0
ONEWEB-0428,2022-012H,2026-06-15T13:27:11.621952,13.10370808,.00017499,87.8832,36.5983,81.8035,278.3291,0,U,51629,999,20907,.1485355E-2,.531E-5,0
ONEWEB-0431,2022-012J,2026-06-15T14:33:54.417312,13.10377008,.00015298,87.8838,36.5817,101.6222,258.5077,0,U,51630,999,20913,-.15696435E-3,-.42E-6,0
ONEWEB-0434,2022-012K,2026-06-15T14:00:50.325120,13.10370795,.00022945,87.8836,36.6109,71.9970,288.1407,0,U,51631,999,20911,-.1561192E-2,-.532E-5,0
ONEWEB-0435,2022-012L,2026-06-15T14:12:34.128288,13.10372606,.00014245,87.8833,36.5963,84.1148,276.0141,0,U,51632,999,20910,-.15729527E-2,-.536E-5,0
ONEWEB-0436,2022-012M,2026-06-15T12:59:55.830624,13.17649031,.00016345,87.9141,6.1728,89.5488,270.5831,0,U,51633,999,21346,.12108116E-3,.6E-6,0
ONEWEB-0438,2022-012N,2026-06-15T13:48:41.732064,13.10369893,.00019643,87.8831,36.6020,80.6411,279.4938,0,U,51634,999,20913,-.57750778E-3,-.189E-5,0
ONEWEB-0439,2022-012P,2026-06-15T13:53:29.330880,13.10371831,.00017798,87.8828,36.5889,79.5828,280.5500,0,U,51635,999,20911,-.11330057E-2,-.383E-5,0
ONEWEB-0442,2022-012Q,2026-06-15T14:38:21.160032,13.17648844,.00023862,87.9135,6.1923,82.6420,277.4982,0,U,51636,999,21346,.13124825E-3,.64E-6,0
ONEWEB-0443,2022-012R,2026-06-15T13:16:56.244864,13.17649611,.00017806,87.9133,6.2043,76.4463,283.6866,0,U,51637,999,21350,.94884911E-4,.5E-6,0
ONEWEB-0444,2022-012S,2026-06-15T13:39:08.304768,13.10370364,.00017926,87.8827,36.5894,77.5661,282.5667,0,U,51638,999,20912,.36014148E-3,.138E-5,0
ONEWEB-0445,2022-012T,2026-06-15T14:10:11.642592,13.10376666,.00018214,87.8842,36.5733,89.6613,270.4723,0,U,51639,999,20913,-.4248383E-3,-.136E-5,0
ONEWEB-0446,2022-012U,2026-06-15T13:36:44.964576,13.10369016,.00018629,87.8832,36.6068,86.9433,273.1908,0,U,51640,999,20911,.5066561E-3,.19E-5,0
ONEWEB-0448,2022-012V,2026-06-15T13:43:55.245216,13.10370176,.00017545,87.8828,36.6024,80.3739,279.7586,0,U,51641,999,20908,-.12381151E-3,-.31E-6,0
ONEWEB-0449,2022-012W,2026-06-15T13:51:05.082624,13.10370277,.00021623,87.8833,36.5867,75.2828,284.8539,0,U,51642,999,20909,-.97505977E-3,-.328E-5,0
ONEWEB-0451,2022-012X,2026-06-15T12:55:05.277792,13.17649244,.00020042,87.9143,6.1710,83.1510,276.9850,0,U,51643,999,21344,.1236088E-3,.61E-6,0
ONEWEB-0452,2022-012Y,2026-06-15T14:41:59.360640,13.17648646,.00018884,87.9134,6.1932,78.2922,281.8421,0,U,51644,999,21346,.65392307E-4,.38E-6,0
ONEWEB-0456,2022-012AA,2026-06-15T14:05:23.338752,13.10375949,.00015648,87.8841,36.5713,81.4408,278.6896,0,U,51646,999,20913,.26116339E-3,.104E-5,0
ONEWEB-0457,2022-012AB,2026-06-15T13:31:46.282368,13.10369792,.00021653,87.8830,36.5950,88.7348,271.4027,0,U,51647,999,20913,.11390927E-2,.41E-5,0
ONEWEB-0458,2022-012AC,2026-06-15T14:03:01.762848,13.10371492,.00018467,87.8840,36.5782,76.0302,284.1030,0,U,51648,999,20909,-.16388514E-2,-.559E-5,0
ONEWEB-0461,2022-012AD,2026-06-15T13:24:13.851360,13.17648361,.00019314,87.9142,6.1810,90.0424,270.0929,0,U,51649,999,21367,.10842947E-3,.55E-6,0
ONEWEB-0463,2022-012AE,2026-06-15T12:57:30.860928,13.17648871,.00019644,87.9132,6.2074,91.3505,268.7852,0,U,51650,999,21345,.14188441E-3,.68E-6,0
ONEWEB-0464,2022-012AF,2026-06-15T13:58:14.958048,13.10370300,.00015738,87.8830,36.6005,75.8141,284.3161,0,U,51651,999,20911,-.138082E-2,-.469E-5,0
ONEWEB-0468,2022-012AG,2026-06-15T14:07:48.112320,13.10375767,.0001492,87.8830,36.5931,75.6569,284.4724,0,U,51652,999,20909,-.42915729E-3,-.137E-5,0
